SL-3 R/B                
1 13403U 82079B   25324.74276701  .00005747  00000+0  23934-3 0  9993
2 13403  81.1455 321.5860 0025858 170.7152 189.4564 15.23248339361101
SL-14 R/B               
1 13553U 82092B   25324.72895686  .00000678  00000+0  73678-4 0  9990
2 13553  82.5687 243.2942 0019113 305.7801  73.4474 14.86521560312744
SL-3 R/B                
1 13819U 83010B   25324.46435309  .00012598  00000+0  28666-3 0  9999
2 13819  81.1019 135.7916 0018151  67.4496 292.8665 15.42660173341087
SL-3 R/B                
1 14208U 83075B   25324.76518694  .00010091  00000+0  29264-3 0  9996
2 14208  97.6097 320.5220 0020915 258.1832 101.7066 15.35525808313421
COSMOS 1536             
1 14699U 84013A   25324.45801117  .00006822  00000+0  29522-3 0  9998
2 14699  82.5474 216.2525 0013715 313.2767  46.7324 15.22176708255995
SL-14 R/B               
1 14820U 84027B   25324.46705676  .00000540  00000+0  59175-4 0  9992
2 14820  82.5417 347.4451 0017377 340.1443  19.9095 14.85840681231415
SL-8 R/B                
1 15483U 85006B   25324.68390737  .00000275  00000+0  10012-3 0  9999
2 15483  74.0445 101.7119 0017762  40.4777 330.8805 14.37701110138362
SL-12 R/B(2)            
1 15772U 85042D   25324.45548472  .00000122  00000+0  76419-4 0  9991
2 15772  71.1077 318.4990 0037486 294.0966 176.7858 14.21941793 98869
SL-14 R/B               
1 15945U 85069B   25324.48495198  .00000655  00000+0  71445-4 0  9996
2 15945  82.5247 127.6255 0018522 189.8255 170.2603 14.86285356156614
SL-16 R/B               
1 16182U 85097B   25324.62825779  .00000304  00000+0  17626-3 0  9990
2 16182  71.0043  10.1549 0005550  51.3124 118.9381 14.16579784 71782
SL-14 R/B               
1 16496U 86006B   25324.21926983  .00000778  00000+0  80663-4 0  9990
2 16496  82.5281   2.7417 0075209 275.7055  83.5590 14.86627265132945
COSMOS 1743             
1 16719U 86034A   25324.33665713  .00025600  00000+0  44444-3 0  9990
2 16719  82.5361 187.8318 0006096 350.8837   9.2303 15.50679936163268
